LEMUR-1                 
1 40044U 14033AL  26168.36131115  .00001695  00000+0  19953-3 0  9997
2 40044  97.7876 318.1624 0049676  78.0722 282.6056 14.85247306645498
LEMUR-2-GREENBERG       
1 42837U 17042N   26168.47908919  .00012423  00000+0  41240-3 0  9993
2 42837  97.3816 349.1017 0008508  13.0067 347.1392 15.31334775488438
LEMUR-2-ANDIS           
1 42838U 17042P   26168.05134781  .00018164  00000+0  53887-3 0  9994
2 42838  97.3672 348.8597 0008174  12.8795 347.2655 15.34838886488430
LEMUR-2-MONSON          
1 42839U 17042Q   26168.48849161  .00010574  00000+0  38928-3 0  9993
2 42839  97.4076 349.0830 0006183   5.1720 354.9582 15.28016395488210
LEMUR-2-FURIAUS         
1 42840U 17042R   26168.47308843  .00013294  00000+0  45598-3 0  9994
2 42840  97.3768 347.0502 0008175  68.3707 291.8403 15.30258907488257
LEMUR-2-PETERG          
1 42841U 17042S   26168.94870897  .00017153  00000+0  52475-3 0  9990
2 42841  97.3988 353.9794 0003174 353.9946   6.1258 15.33907981488557
LEMUR-2-DEMBITZ         
1 42842U 17042T   26168.95068112  .00013947  00000+0  47759-3 0  9997
2 42842  97.3823 350.5492 0006681  26.2421 333.9157 15.30313913488460
LEMUR-2-ZACHARY         
1 42845U 17042W   26168.51275702  .00037119  00000+0  65522-3 0  9992
2 42845  97.3591   0.1557 0002877  31.4744 328.6679 15.50284724489251
LEMUR-2-AMANDA-SVANTE   
1 48269U 21034B   26168.74878912  .00026226  00000+0  78973-3 0  9992
2 48269  97.5760 247.0493 0002354 205.6688 154.4438 15.34324991281149
LEMUR-2-SPECIAL-K       
1 48273U 21034F   26168.78897012  .00135073  00000+0  13789-2 0  9997
2 48273  97.5653 255.6897 0004356 229.0724 131.0158 15.64619354281786
LEMUR-2-EMBRIONOVIS     
1 56970U 23084AQ  26168.33188497  .00010473  00000+0  28630-3 0  9996
2 56970  97.6296 312.5361 0007732 319.5567  40.5101 15.37551092167704
LEMUR-2-DEVERILL-M-T    
1 57391U 23100F   26168.62472929  .00021093  00000+0  53435-3 0  9992
2 57391  99.4465 207.5088 0006239  49.0756 311.1023 15.39772548161319
LEMUR-2-BASS            
1 58259U 23174D   26168.79388358  .00014398  00000+0  32695-3 0  9992
2 58259  97.3847 253.5145 0007781 160.0647 200.0906 15.43111358145459
LEMUR-2-JK0903EM1407    
1 58336U 23174CJ  26168.78863390  .00023660  00000+0  39821-3 0  9991
2 58336  97.3924 259.2749 0005745 118.3602 241.8230 15.51707078145822
LEMUR-2-MJR092620       
1 58340U 23174CN  26168.80648511  .00015933  00000+0  34052-3 0  9990
2 58340  97.3976 258.8465 0007122 115.8052 244.3932 15.44894572145742
LEMUR-2-NIMBUS2000      
1 58899U 24022A   26168.53364534  .00013626  00000+0  34279-3 0  9990
2 58899  97.4103  18.5391 0010352 114.7949 245.4375 15.40005076132327
LEMUR-2-VALHALLA        
1 58900U 24022B   26168.52993710  .00012802  00000+0  32560-3 0  9992
2 58900  97.4101  18.5257 0010869 110.9404 249.3006 15.39680570132326
LEMUR-2-CAEL            
1 58903U 24022E   26168.53947322  .00013768  00000+0  33549-3 0  9994
2 58903  97.4083  19.4718 0009264  96.4011 263.8290 15.40983708132393
LEMUR-2-JOHNNYTRUONG    
1 59146U 24043BA  26168.40654851  .00033183  00000+0  40360-3 0  9997
2 59146  97.5382 320.1225 0004826 175.9069 184.2228 15.60479348128075
LEMUR-2-TOMATOKECHUP    
1 60471U 24149D   26168.75878201  .00009126  00000+0  26226-3 0  9997
2 60471  97.3800 250.8069 0001501 174.1749 185.9513 15.36043764102258
LEMUR-2-STELLA          
1 60533U 24149BT  26168.74364588  .00008701  00000+0  51289-3 0  9998
2 60533  97.6738 251.2009 0001679  96.0529 264.0893 15.11821344100588
LEMUR-2-MARHISYAM       
1 60536U 24149BW  26168.92279806  .00009249  00000+0  55321-3 0  9998
2 60536  97.6878 251.8303 0003263 116.8175 243.3389 15.11273220100593
LEMUR-2-AHMED-ASRAR     
1 60576U 24149DN  26168.75778984  .00009358  00000+0  53770-3 0  9991
2 60576  97.7008 253.7599 0001833  43.6479 316.4896 15.12725584100654
LEMUR-2-LLOYD           
1 60577U 24149DP  26168.77158369  .00008858  00000+0  56011-3 0  9998
2 60577  97.6748 249.9004 0004843 138.8319 221.3276 15.09249553100487
LEMUR-2-SQUIRRELCOMM    
1 60578U 24149DQ  26168.78656620  .00004943  00000+0  33279-3 0  9995
2 60578  97.6705 249.6957 0006248  59.5090 300.6754 15.07154532100494
LEMUR-2-SIERRINI        
1 60579U 24149DR  26168.81402900  .00008822  00000+0  53233-3 0  9992
2 60579  97.6842 251.4090 0005939 162.2870 197.8567 15.10959255100554
LEMUR-2-WILSON          
1 62694U 25009CP  26168.76424135  .00002341  00000+0  21834-3 0  9998
2 62694  97.7026 247.2186 0004245  57.5383 302.6248 14.95167962 77443
LEMUR-2-STAR-FOX        
1 62696U 25009CR  26168.89194527  .00006473  00000+0  49161-3 0  9996
2 62696  97.6956 250.4954 0003926 109.8569 250.3079 15.02514028 77660
LEMUR-2-ARIANNA         
1 62699U 25009CU  26168.89029334  .00006553  00000+0  49787-3 0  9995
2 62699  97.6894 250.2682 0004309 115.4191 244.7480 15.02495666 77669
LEMUR-2-ALISIA          
1 62706U 25009DB  26168.73489777  .00005749  00000+0  43425-3 0  9997
2 62706  97.6951 250.9012 0002094 191.5594 168.5584 15.02775304100246
